{
  "type": "FeatureCollection",
  "features": [
    {
      "type": "Feature",
      "properties": {
        "norad_id": 35434,
        "name": "COSMOS 2251 DEB",
        "group": "cosmos-2251-debris",
        "lat": -48.49352611435313,
        "lon": -174.40053310485038,
        "alt_km": 760.8821782246787,
        "timestamp": "2025-12-17T19:34:08.433687+00:00",
        "meta_object_name": "COSMOS 2251 DEB",
        "meta_object_id": "1993-036AKC",
        "meta_epoch": "2025-12-13T21:29:58.278624",
        "meta_mean_motion": 14.25692247,
        "meta_eccentricity": 0.00874643,
        "meta_inclination": 74.0404,
        "meta_ra_of_asc_node": 211.5388,
        "meta_arg_of_pericenter": 282.0357,
        "meta_mean_anomaly": 77.0999,
        "meta_ephemeris_type": 0,
        "meta_classification_type": "U",
        "meta_norad_cat_id": 35434,
        "meta_element_set_no": 999,
        "meta_rev_at_epoch": 86134,
        "meta_bstar": 0.00076141319,
        "meta_mean_motion_dot": 1.854e-05,
        "meta_mean_motion_ddot": 0,
        "tle_line1": "1 35434U 93036AKC 25347.89581341  .00001854  00000+0  76141-3 0  9999",
        "tle_line2": "2 35434  74.0404 211.5388 0087464 282.0357  77.0999 14.25692247861349"
      },
      "geometry": {
        "type": "Point",
        "coordinates": [
          -174.40053310485038,
          -48.49352611435313
        ]
      }
    },
    {
      "type": "Feature",
      "properties": {
        "norad_id": 35435,
        "name": "COSMOS 2251 DEB",
        "group": "cosmos-2251-debris",
        "lat": 24.997680803782814,
        "lon": 101.75961212896621,
        "alt_km": 637.6168958448388,
        "timestamp": "2025-12-17T19:34:08.433697+00:00",
        "meta_object_name": "COSMOS 2251 DEB",
        "meta_object_id": "1993-036AKD",
        "meta_epoch": "2025-12-16T16:09:04.180320",
        "meta_mean_motion": 14.78596665,
        "meta_eccentricity": 0.00074751,
        "meta_inclination": 74.0112,
        "meta_ra_of_asc_node": 96.3245,
        "meta_arg_of_pericenter": 191.48,
        "meta_mean_anomaly": 236.2154,
        "meta_ephemeris_type": 0,
        "meta_classification_type": "U",
        "meta_norad_cat_id": 35435,
        "meta_element_set_no": 999,
        "meta_rev_at_epoch": 87597,
        "meta_bstar": 0.0016558957,
        "meta_mean_motion_dot": 0.00012113,
        "meta_mean_motion_ddot": 0,
        "tle_line1": "1 35435U 93036AKD 25350.67296505  .00012113  00000+0  16559-2 0  9991",
        "tle_line2": "2 35435  74.0112  96.3245 0007475 191.4800 236.2154 14.78596665875978"
      },
      "geometry": {
        "type": "Point",
        "coordinates": [
          101.75961212896621,
          24.997680803782814
        ]
      }
    },
    {
      "type": "Feature",
      "properties": {
        "norad_id": 35439,
        "name": "COSMOS 2251 DEB",
        "group": "cosmos-2251-debris",
        "lat": -7.233807752663557,
        "lon": -51.87269856293249,
        "alt_km": 969.3794528349708,
        "timestamp": "2025-12-17T19:34:08.433707+00:00",
        "meta_object_name": "COSMOS 2251 DEB",
        "meta_object_id": "1993-036AKH",
        "meta_epoch": "2025-12-17T04:00:48.812832",
        "meta_mean_motion": 13.92829249,
        "meta_eccentricity": 0.02424604,
        "meta_inclination": 74.0187,
        "meta_ra_of_asc_node": 127.1529,
        "meta_arg_of_pericenter": 295.4748,
        "meta_mean_anomaly": 245.9503,
        "meta_ephemeris_type": 0,
        "meta_classification_type": "U",
        "meta_norad_cat_id": 35439,
        "meta_element_set_no": 999,
        "meta_rev_at_epoch": 84022,
        "meta_bstar": 0.0013909461,
        "meta_mean_motion_dot": 2.269e-05,
        "meta_mean_motion_ddot": 0,
        "tle_line1": "1 35439U 93036AKH 25351.16723163  .00002269  00000+0  13909-2 0  9992",
        "tle_line2": "2 35439  74.0187 127.1529 0242460 295.4748 245.9503 13.92829249840220"
      },
      "geometry": {
        "type": "Point",
        "coordinates": [
          -51.87269856293249,
          -7.233807752663557
        ]
      }
    },
    {
      "type": "Feature",
      "properties": {
        "norad_id": 35440,
        "name": "COSMOS 2251 DEB",
        "group": "cosmos-2251-debris",
        "lat": -26.942505722854428,
        "lon": 26.170148999949546,
        "alt_km": 701.0449280014273,
        "timestamp": "2025-12-17T19:34:08.433717+00:00",
        "meta_object_name": "COSMOS 2251 DEB",
        "meta_object_id": "1993-036AKJ",
        "meta_epoch": "2025-12-15T07:46:28.648416",
        "meta_mean_motion": 14.68828741,
        "meta_eccentricity": 0.00694074,
        "meta_inclination": 74.0146,
        "meta_ra_of_asc_node": 202.6185,
        "meta_arg_of_pericenter": 342.923,
        "meta_mean_anomaly": 16.9604,
        "meta_ephemeris_type": 0,
        "meta_classification_type": "U",
        "meta_norad_cat_id": 35440,
        "meta_element_set_no": 999,
        "meta_rev_at_epoch": 68803,
        "meta_bstar": 0.00030871729,
        "meta_mean_motion_dot": 1.836e-05,
        "meta_mean_motion_ddot": 0,
        "tle_line1": "1 35440U 93036AKJ 25349.32394269  .00001836  00000+0  30872-3 0  9998",
        "tle_line2": "2 35440  74.0146 202.6185 0069407 342.9230  16.9604 14.68828741688033"
      },
      "geometry": {
        "type": "Point",
        "coordinates": [
          26.170148999949546,
          -26.942505722854428
        ]
      }
    },
    {
      "type": "Feature",
      "properties": {
        "norad_id": 35441,
        "name": "COSMOS 2251 DEB",
        "group": "cosmos-2251-debris",
        "lat": 46.3467708194101,
        "lon": -54.222495224827554,
        "alt_km": 698.3545640961256,
        "timestamp": "2025-12-17T19:34:08.433727+00:00",
        "meta_object_name": "COSMOS 2251 DEB",
        "meta_object_id": "1993-036AKK",
        "meta_epoch": "2025-12-15T03:19:30.492768",
        "meta_mean_motion": 14.62637993,
        "meta_eccentricity": 0.00365994,
        "meta_inclination": 74.1346,
        "meta_ra_of_asc_node": 293.5313,
        "meta_arg_of_pericenter": 189.4895,
        "meta_mean_anomaly": 170.5586,
        "meta_ephemeris_type": 0,
        "meta_classification_type": "U",
        "meta_norad_cat_id": 35441,
        "meta_element_set_no": 999,
        "meta_rev_at_epoch": 87465,
        "meta_bstar": 0.00095338273,
        "meta_mean_motion_dot": 4.868e-05,
        "meta_mean_motion_ddot": 0,
        "tle_line1": "1 35441U 93036AKK 25349.13854737  .00004868  00000+0  95338-3 0  9995",
        "tle_line2": "2 35441  74.1346 293.5313 0036599 189.4895 170.5586 14.62637993874658"
      },
      "geometry": {
        "type": "Point",
        "coordinates": [
          -54.222495224827554,
          46.3467708194101
        ]
      }
    },
    {
      "type": "Feature",
      "properties": {
        "norad_id": 35442,
        "name": "COSMOS 2251 DEB",
        "group": "cosmos-2251-debris",
        "lat": -27.516283993841924,
        "lon": 80.48189046763183,
        "alt_km": 620.5238044471498,
        "timestamp": "2025-12-17T19:34:08.433737+00:00",
        "meta_object_name": "COSMOS 2251 DEB",
        "meta_object_id": "1993-036AKL",
        "meta_epoch": "2025-12-17T00:17:27.406464",
        "meta_mean_motion": 14.84602937,
        "meta_eccentricity": 0.00037296,
        "meta_inclination": 74.0275,
        "meta_ra_of_asc_node": 90.6565,
        "meta_arg_of_pericenter": 70.0102,
        "meta_mean_anomaly": 290.1478,
        "meta_ephemeris_type": 0,
        "meta_classification_type": "U",
        "meta_norad_cat_id": 35442,
        "meta_element_set_no": 999,
        "meta_rev_at_epoch": 87416,
        "meta_bstar": 0.0016861079,
        "meta_mean_motion_dot": 0.00014243,
        "meta_mean_motion_ddot": 0,
        "tle_line1": "1 35442U 93036AKL 25351.01212276  .00014243  00000+0  16861-2 0  9993",
        "tle_line2": "2 35442  74.0275  90.6565 0003729  70.0102 290.1478 14.84602937874168"
      },
      "geometry": {
        "type": "Point",
        "coordinates": [
          80.48189046763183,
          -27.516283993841924
        ]
      }
    },
    {
      "type": "Feature",
      "properties": {
        "norad_id": 35443,
        "name": "COSMOS 2251 DEB",
        "group": "cosmos-2251-debris",
        "lat": -48.258975126911125,
        "lon": 160.07405542141473,
        "alt_km": 614.3176825182063,
        "timestamp": "2025-12-17T19:34:08.433746+00:00",
        "meta_object_name": "COSMOS 2251 DEB",
        "meta_object_id": "1993-036AKM",
        "meta_epoch": "2025-12-15T08:48:26.743680",
        "meta_mean_motion": 14.96932548,
        "meta_eccentricity": 0.00731181,
        "meta_inclination": 73.9871,
        "meta_ra_of_asc_node": 326.2641,
        "meta_arg_of_pericenter": 107.3149,
        "meta_mean_anomaly": 253.6052,
        "meta_ephemeris_type": 0,
        "meta_classification_type": "U",
        "meta_norad_cat_id": 35443,
        "meta_element_set_no": 999,
        "meta_rev_at_epoch": 86917,
        "meta_bstar": 0.0020713088,
        "meta_mean_motion_dot": 0.00025182,
        "meta_mean_motion_ddot": 0,
        "tle_line1": "1 35443U 93036AKM 25349.36697620  .00025182  00000+0  20713-2 0  9994",
        "tle_line2": "2 35443  73.9871 326.2641 0073118 107.3149 253.6052 14.96932548869170"
      },
      "geometry": {
        "type": "Point",
        "coordinates": [
          160.07405542141473,
          -48.258975126911125
        ]
      }
    }
  ]
}